STARLINK-4718           
1 53773U 22111A   22281.58334491 -.01196919  00000+0 -14296-1 0  9994
2 53773  53.2171 131.0467 0001377 126.1311  24.2747 15.63158773  1307
STARLINK-4719           
1 53774U 22111B   22281.58334491 -.01195887  00000+0 -14271-1 0  9991
2 53774  53.2172 131.0446 0001361 120.3827  30.9129 15.63178959  1303
STARLINK-4722           
1 53775U 22111C   22281.58334491  .00005366  00000+0  42663-4 0  9990
2 53775  53.2152 130.8938 0001347 139.7866  84.1457 15.73177471  1300
STARLINK-4708           
1 53776U 22111D   22281.58334491  .00029993  00000+0  21740-3 0  9995
2 53776  53.2148 130.8974 0001585 129.5986  93.0719 15.73195203  1303
STARLINK-4664           
1 53777U 22111E   22281.58334491 -.00033013  00000+0 -23186-3 0  9992
2 53777  53.2153 130.8927 0001291 136.8146  88.2936 15.73186043  1300
STARLINK-4709           
1 53778U 22111F   22281.58334491  .00101468  00000+0  72105-3 0  9996
2 53778  53.2148 130.8957 0001360 135.1820  88.1054 15.73122824  1303
STARLINK-4706           
1 53779U 22111G   22281.58334491  .00057696  00000+0  41187-3 0  9996
2 53779  53.2152 130.8915 0001322 127.7256  97.9350 15.73246248  1305
STARLINK-4678           
1 53780U 22111H   22281.58334491  .00054129  00000+0  38808-3 0  9992
2 53780  53.2147 130.8968 0001622 147.6530  76.8383 15.73170920  1303
STARLINK-4462           
1 53781U 22111J   22281.58334491  .00083586  00000+0  59487-3 0  9998
2 53781  53.2151 130.8910 0001798 146.7547  80.6434 15.73167667  1302
STARLINK-4679           
1 53782U 22111K   22281.58334491 -.00069183  00000+0 -49188-3 0  9995
2 53782  53.2150 130.8928 0001786 142.8621  83.4463 15.73231213  1300
STARLINK-4536           
1 53783U 22111L   22281.58334491  .00011035  00000+0  82849-4 0  9999
2 53783  53.2150 130.8883 0001764 140.6060  88.0116 15.73225631  1303
STARLINK-4687           
1 53784U 22111M   22281.58334491  .00046665  00000+0  33539-3 0  9998
2 53784  53.2147 130.8910 0001751 147.6749  79.1218 15.73176739  1306
STARLINK-4638           
1 53785U 22111N   22281.58334491  .00015291  00000+0  69873-4 0  9991
2 53785  53.2029 129.1493 0006852 332.9930  10.8828 15.84024755  1302
STARLINK-4631           
1 53786U 22111P   22281.58334491  .00101040  00000+0  71748-3 0  9993
2 53786  53.2139 130.8866 0001571 141.5045  86.5334 15.73141742  1308
STARLINK-4743           
1 53787U 22111Q   22281.58334491  .00011536  00000+0  86529-4 0  9998
2 53787  53.2151 130.8824 0002032 147.6732  83.3988 15.73192282  1305
STARLINK-4744           
1 53788U 22111R   22281.58334491  .00014658  00000+0  66030-4 0  9992
2 53788  53.2029 129.1333 0006831 331.9248  19.8249 15.84374740  1304
STARLINK-4666           
1 53789U 22111S   22281.58334491 -.00003827  00000+0 -22894-4 0  9991
2 53789  53.2146 130.8796 0001197  86.9088 145.3683 15.73174590  1302
STARLINK-4734           
1 53790U 22111T   22281.58334491  .00074744  00000+0  53314-3 0  9997
2 53790  53.2146 130.8841 0001348 129.3293 101.0275 15.73160444  1302
STARLINK U              
1 53791U 22111U   22280.94976625  .00197167  00000+0  73899-3 0  9993
2 53791  53.2024 132.2729 0007154 331.8840  28.1799 15.86792936  4267
STARLINK-4739           
1 53792U 22111V   22281.58334491  .00023197  00000+0  16954-3 0  9994
2 53792  53.2148 130.8814 0001978 148.7819  82.8422 15.73158239  1303
STARLINK-4728           
1 53793U 22111W   22281.58334491  .00065592  00000+0  46924-3 0  9990
2 53793  53.2152 130.8785 0001076 117.6687 115.7275 15.73144227  1307
STARLINK-4730           
1 53794U 22111X   22281.58334491  .00071814  00000+0  51310-3 0  9990
2 53794  53.2142 130.8775 0001465 137.6976  95.1318 15.73137151  1308
STARLINK-4742           
1 53795U 22111Y   22281.58334491  .00057479  00000+0  41235-3 0  9997
2 53795  53.2147 130.8768 0002042 157.4028  76.5800 15.73131107  1300
STARLINK Z              
1 53796U 22111Z   22280.88528089  .00193730  00000+0  72478-3 0  9992
2 53796  53.2020 132.5799 0006566 329.3821  30.6820 15.86845448  4254
STARLINK-4723           
1 53797U 22111AA  22281.58334491  .00069109  00000+0  49398-3 0  9990
2 53797  53.2154 130.8751 0001085 118.7019 116.5055 15.73142960  1304
STARLINK-4712           
1 53798U 22111AB  22281.58334491  .00101212  00000+0  71933-3 0  9993
2 53798  53.2151 130.8734 0001222 122.8721 111.7086 15.73120746  1301
STARLINK-4710           
1 53799U 22111AC  22281.58334491 -.00013888  00000+0 -94790-4 0  9994
2 53799  53.2153 130.8727 0001359 116.2768 120.1042 15.73178013  1301
STARLINK-4720           
1 53800U 22111AD  22281.58334491 -.00020397  00000+0 -14118-3 0  9995
2 53800  53.2155 130.8739 0001214 116.2494 119.5017 15.73214481  1309
STARLINK-4715           
1 53801U 22111AE  22281.58334491  .00101243  00000+0  71918-3 0  9995
2 53801  53.2145 130.8687 0001305 114.0984 123.4719 15.73132726  1306
STARLINK-4726           
1 53802U 22111AF  22281.58334491  .00069951  00000+0  50024-3 0  9990
2 53802  53.2150 130.8705 0001104 118.7557 118.2141 15.73126824  1301
STARLINK-4727           
1 53803U 22111AG  22281.58334491 -.00041898  00000+0 -29579-3 0  9994
2 53803  53.2142 130.8647 0001196 118.3367 120.4778 15.73184963  1303
STARLINK-4729           
1 53804U 22111AH  22281.58334491 -.00007916  00000+0 -52099-4 0  9992
2 53804  53.2147 130.8670 0001431 123.0700 115.1418 15.73172586  1301
STARLINK-4763           
1 53805U 22111AJ  22281.58334491 -.00016903  00000+0 -11648-3 0  9993
2 53805  53.2143 130.8635 0001409 119.0457 120.3511 15.73155999  1309
STARLINK-4768           
1 53806U 22111AK  22281.58334491  .00071347  00000+0  50954-3 0  9998
2 53806  53.2158 130.8661 0001284 131.0368 108.9429 15.73150148  1302
BLUEWALKER-3            
1 53807U 22111AL  22281.50051825  .00003546  00000+0  18527-3 0  9994
2 53807  53.2034 142.2500 0013303  14.7094 345.4287 15.18416803  4184
FALCON 9 DEB            
1 53808U 22111AM  22280.83160755  .00608866  16605-3  14722-2 0  9993
2 53808  53.2000 132.2185 0008753 294.1092  65.9022 15.95754675  4257
FALCON 9 DEB            
1 53809U 22111AN  22280.85804479  .00284490  40759-4  93593-3 0  9999
2 53809  53.1991 132.3913 0006424 333.1866  26.8828 15.90021891  5301
FALCON 9 DEB            
1 53810U 22111AP  22281.28839075  .00255418  35149-4  80935-3 0  9990
2 53810  53.1999 130.0929 0008888 338.2627  21.8022 15.90747830  4320
FALCON 9 DEB            
1 53811U 22111AQ  22281.00798543  .00272585  00000+0  93849-3 0  9990
2 53811  53.1937 131.9062 0006896 300.0613  59.9729 15.88323910  4276
FALCON 9 DEB            
1 53812U 22111AR  22280.88580447  .00205967  00000+0  76312-3 0  9994
2 53812  53.1969 132.5720 0008474 316.1400  43.8952 15.86989476  4257
CHINASAT 1E (ZX 1E)     
1 53813U 22112A   22281.55813163 -.00000167  00000+0  00000+0 0  9998
2 53813   1.4621 280.1787 0002703 252.8189 126.4514  1.00269267   349
CZ-7A R/B               
1 53814U 22112B   22280.08577227 -.00000020  00000+0  00000+0 0  9992
2 53814  14.2951 196.2965 4813127 196.0332 340.9669  5.72295490   687
STRIX-1                 
1 53815U 22113A   22281.50445629  .00005796  00000+0  47029-3 0  9992
2 53815  97.6611 332.0789 0012378 222.6489 137.3799 14.99976221  3394
ELECTRON KICK STAGE R/B 
1 53817U 22113C   22281.63161170  .00006636  00000+0  53167-3 0  9998
2 53817  97.6586 332.2165 0013090 216.0462 143.9884 15.00405282  3415
STARLINK-4749           
1 53818U 22114A   22281.58334491  .00006304  00000+0  49318-4 0  9998
2 53818  53.2153 162.1057 0001174 129.5026  33.5151 15.73189903  1304
STARLINK-4738           
1 53819U 22114B   22281.58334491  .00128555  00000+0  91035-3 0  9994
2 53819  53.2151 162.0983 0001365  91.5751  74.4572 15.73098899  1309
STARLINK-4758           
1 53820U 22114C   22281.58334491  .00014092  00000+0  10480-3 0  9991
2 53820  53.2152 162.1044 0001323 125.1380  38.5330 15.73167397  1300
STARLINK-4752           
1 53821U 22114D   22281.58334491 -.00002521  00000+0 -13547-4 0  9996
2 53821  53.2173 162.1033 0001267 100.9830  64.3715 15.73205038  1309
STARLINK-4713           
1 53822U 22114E   22280.56206978  .17043645  12483-4  88184-3 0  9991
2 53822  53.1893 163.7779 0035107  70.8516 296.7032 16.37848764  3538
STARLINK-4748           
1 53823U 22114F   22281.58334491 -.01196939  00000+0 -74645-2 0  9990
2 53823  53.2173 160.6004 0001630  36.3314 141.3475 15.78903802  1303
STARLINK-4757           
1 53824U 22114G   22281.58334491  .00017629  00000+0  12978-3 0  9998
2 53824  53.2169 162.1034 0001000  93.1779  74.0676 15.73196490  1303
STARLINK-4751           
1 53825U 22114H   22281.58334491  .00020707  00000+0  15190-3 0  9999
2 53825  53.2156 162.0989 0001044  99.3157  67.3393 15.73151202  1307
STARLINK-4756           
1 53826U 22114J   22281.58334491  .00076974  00000+0  54978-3 0  9994
2 53826  53.2156 162.0932 0001376 139.6376  29.9663 15.73117360  1306
STARLINK-4764           
1 53827U 22114K   22281.58334491  .00109575  00000+0  77814-3 0  9993
2 53827  53.2153 162.0953 0001185  64.3308 103.4698 15.73105292  1301
STARLINK-4760           
1 53828U 22114L   22281.58334491  .00091064  00000+0  64855-3 0  9998
2 53828  53.2153 162.0913 0000942 119.2037  51.0230 15.73116485  1303
STARLINK-4759           
1 53829U 22114M   22281.58334491 -.00042183  00000+0 -29768-3 0  9993
2 53829  53.2164 162.0991 0001157  68.5020  99.9122 15.73197906  1307
STARLINK-4761           
1 53830U 22114N   22281.58334491  .00111783  00000+0  79358-3 0  9996
2 53830  53.2157 162.0895 0001082 114.7436  56.6160 15.73103672  1305
STARLINK-4649           
1 53831U 22114P   22281.58334491  .00090642  00000+0  64548-3 0  9992
2 53831  53.2154 162.0944 0001084 121.9717  47.0737 15.73120728  1307
STARLINK-4747           
1 53832U 22114Q   22281.58334491  .00026024  00000+0  18966-3 0  9999
2 53832  53.2153 162.0862 0000860 114.4802  58.1511 15.73151005  1304
